[{"OBJECT_NAME":"STARLINK-31924","OBJECT_ID":"2024-100V","EPOCH":"2026-03-09T12:43:01.960320","MEAN_MOTION":15.27576037,"ECCENTRICITY":8.469e-5,"INCLINATION":43.0003,"RA_OF_ASC_NODE":126.195,"ARG_OF_PERICENTER":276.5216,"MEAN_ANOMALY":83.5539,"EPHEMERIS_TYPE":0,"CLASSIFICATION_TYPE":"U","NORAD_CAT_ID":59904,"ELEMENT_SET_NO":999,"REV_AT_EPOCH":10112,"BSTAR":-7.6999212e-5,"MEAN_MOTION_DOT":-2.38e-5,"MEAN_MOTION_DDOT":0},{"OBJECT_NAME":"OTTER","OBJECT_ID":"2025-009Q","EPOCH":"2026-03-09T17:21:07.902432","MEAN_MOTION":15.27809545,"ECCENTRICITY":0.00035728,"INCLINATION":97.4065,"RA_OF_ASC_NODE":151.3812,"ARG_OF_PERICENTER":310.771,"MEAN_ANOMALY":49.3219,"EPHEMERIS_TYPE":0,"CLASSIFICATION_TYPE":"U","NORAD_CAT_ID":62623,"ELEMENT_SET_NO":999,"REV_AT_EPOCH":6372,"BSTAR":0.00045151206,"MEAN_MOTION_DOT":0.00012198,"MEAN_MOTION_DDOT":0}]
